*******************************************************************************
Ephemeris / WWW_USER Mon Mar 24 10:58:58 2025 Pasadena, USA      / Horizons    
*******************************************************************************
Target body name: (2018 TS1)                      {source: JPL#6}
Center body name: Earth (399)                     {source: DE441}
Center-site name: Mauna Kea
*******************************************************************************
Start time      : A.D. 2018-Aug-27 04:51:00.0000 UT      
Stop  time      : A.D. 2018-Aug-27 15:56:00.0000 UT      
Step-size       : 1 minutes
*******************************************************************************
Target pole/equ : undefined
Target radii    : undefined                                                    
Center geodetic : 204.5278, 19.8260847, 4.21024   {E-lon(deg),Lat(deg),Alt(km)}
Center cylindric: 204.5278, 6006.35451, 2151.0229 {E-lon(deg),Dxy(km),Dz(km)}
Center pole/equ : ITRF93                          {East-longitude positive}
Center radii    : 6378.137, 6378.137, 6356.752 km {Equator_a, b, pole_c}       
Target primary  : Sun
Vis. interferer : MOON (R_eq= 1737.400) km        {source: DE441}
Rel. light bend : Sun                             {source: DE441}
Rel. lght bnd GM: 1.3271E+11 km^3/s^2                                          
Small-body perts: Yes                             {source: SB441-N16}
Atmos refraction: NO (AIRLESS)
RA format       : HMS
Time format     : CAL 
Calendar mode   : Mixed Julian/Gregorian
RTS-only print  : NO       
EOP file        : eop.250321.p250617                                           
EOP coverage    : DATA-BASED 1962-JAN-20 TO 2025-MAR-21. PREDICTS-> 2025-JUN-16
Units conversion: 1 au= 149597870.700 km, c= 299792.458 km/s, 1 day= 86400.0 s 
Table cut-offs 1: Elevation (-90.0deg=NO ),Airmass (>38.000=NO), Daylight (YES)
Table cut-offs 2: Solar elongation (  0.0,180.0=NO ),Local Hour Angle( 0.0=NO )
Table cut-offs 3: RA/DEC angular rate (     0.0=NO )                           
*******************************************************************************
Initial IAU76/J2000 heliocentric ecliptic osculating elements (au, days, deg.):
  EPOCH=  2458397.5 ! 2018-Oct-06.00 (TDB)         Residual RMS= .30565        
   EC= .4232280089037878   QR= .7951431742456924   TP= 2458457.9340165281      
   OM= 356.454891650426    W=  97.01949783285009   IN= 2.243887958983723       
  Equivalent ICRF heliocentric cartesian coordinates (au, au/d):
   X= 1.037748414669454E+00  Y= 2.036665248544260E-01  Z= 1.007134111375925E-01
  VX=-1.028941390482545E-02 VY= 1.387292408111162E-02 VZ= 6.642652492995660E-03
Asteroid physical parameters (km, seconds, rotational period in hours):        
   GM= n.a.                RAD= n.a.               ROTPER= n.a.                
   H= 25.7                 G= .150                 B-V= n.a.                   
                           ALBEDO= n.a.            STYP= n.a.                  
*******************************************************************************
 Date__(UT)__HR:MN     R.A._________(ICRF)_________DEC
******************************************************
$$SOE
 2018-Aug-27 06:54  m  00 35 46.948734 +01 47 32.79610
 2018-Aug-27 06:55  m  00 35 46.972622 +01 47 33.07089
 2018-Aug-27 06:56  m  00 35 46.996481 +01 47 33.34568
 2018-Aug-27 06:57  m  00 35 47.020310 +01 47 33.62046
 2018-Aug-27 06:58  m  00 35 47.044110 +01 47 33.89525
 2018-Aug-27 06:59  m  00 35 47.067881 +01 47 34.17004
 2018-Aug-27 07:00  m  00 35 47.091622 +01 47 34.44483
 2018-Aug-27 07:01  m  00 35 47.115335 +01 47 34.71961
 2018-Aug-27 07:02  m  00 35 47.139018 +01 47 34.99440
 2018-Aug-27 07:03  m  00 35 47.162672 +01 47 35.26918
 2018-Aug-27 07:04  m  00 35 47.186297 +01 47 35.54397
 2018-Aug-27 07:05  m  00 35 47.209892 +01 47 35.81875
 2018-Aug-27 07:06  m  00 35 47.233459 +01 47 36.09354
 2018-Aug-27 07:07  m  00 35 47.256996 +01 47 36.36832
 2018-Aug-27 07:08  m  00 35 47.280505 +01 47 36.64310
 2018-Aug-27 07:09  m  00 35 47.303984 +01 47 36.91788
 2018-Aug-27 07:10  m  00 35 47.327434 +01 47 37.19266
 2018-Aug-27 07:11  m  00 35 47.350855 +01 47 37.46744
 2018-Aug-27 07:12  m  00 35 47.374247 +01 47 37.74222
 2018-Aug-27 07:13  m  00 35 47.397610 +01 47 38.01700
 2018-Aug-27 07:14  m  00 35 47.420945 +01 47 38.29177
 2018-Aug-27 07:15  m  00 35 47.444250 +01 47 38.56655
 2018-Aug-27 07:16  m  00 35 47.467526 +01 47 38.84132
 2018-Aug-27 07:17  m  00 35 47.490773 +01 47 39.11609
 2018-Aug-27 07:18  m  00 35 47.513991 +01 47 39.39086
 2018-Aug-27 07:19  m  00 35 47.537180 +01 47 39.66563
 2018-Aug-27 07:20  m  00 35 47.560341 +01 47 39.94040
 2018-Aug-27 07:21  m  00 35 47.583472 +01 47 40.21516
 2018-Aug-27 07:22  m  00 35 47.606575 +01 47 40.48993
 2018-Aug-27 07:23  m  00 35 47.629649 +01 47 40.76469
 2018-Aug-27 07:24  m  00 35 47.652694 +01 47 41.03945
 2018-Aug-27 07:25  m  00 35 47.675710 +01 47 41.31421
 2018-Aug-27 07:26  m  00 35 47.698698 +01 47 41.58897
 2018-Aug-27 07:27  m  00 35 47.721656 +01 47 41.86372
 2018-Aug-27 07:28  m  00 35 47.744586 +01 47 42.13847
 2018-Aug-27 07:29  m  00 35 47.767488 +01 47 42.41322
 2018-Aug-27 07:30  m  00 35 47.790361 +01 47 42.68797
 2018-Aug-27 07:31  m  00 35 47.813205 +01 47 42.96272
 2018-Aug-27 07:32  m  00 35 47.836020 +01 47 43.23746
 2018-Aug-27 07:33  m  00 35 47.858807 +01 47 43.51220
 2018-Aug-27 07:34  m  00 35 47.881566 +01 47 43.78694
 2018-Aug-27 07:35  m  00 35 47.904296 +01 47 44.06168
 2018-Aug-27 07:36  m  00 35 47.926997 +01 47 44.33641
 2018-Aug-27 07:37  m  00 35 47.949670 +01 47 44.61114
 2018-Aug-27 07:38  m  00 35 47.972315 +01 47 44.88587
 2018-Aug-27 07:39  m  00 35 47.994931 +01 47 45.16060
 2018-Aug-27 07:40  m  00 35 48.017519 +01 47 45.43532
 2018-Aug-27 07:41  m  00 35 48.040078 +01 47 45.71004
 2018-Aug-27 07:42  m  00 35 48.062610 +01 47 45.98476
 2018-Aug-27 07:43  m  00 35 48.085113 +01 47 46.25947
 2018-Aug-27 07:44  m  00 35 48.107588 +01 47 46.53418
 2018-Aug-27 07:45  m  00 35 48.130034 +01 47 46.80889
 2018-Aug-27 07:46  m  00 35 48.152453 +01 47 47.08360
 2018-Aug-27 07:47  m  00 35 48.174843 +01 47 47.35830
 2018-Aug-27 07:48  m  00 35 48.197205 +01 47 47.63300
 2018-Aug-27 07:49  m  00 35 48.219539 +01 47 47.90769
 2018-Aug-27 07:50  m  00 35 48.241846 +01 47 48.18238
 2018-Aug-27 07:51  m  00 35 48.264124 +01 47 48.45707
 2018-Aug-27 07:52  m  00 35 48.286374 +01 47 48.73176
 2018-Aug-27 07:53  m  00 35 48.308596 +01 47 49.00644
 2018-Aug-27 07:54  m  00 35 48.330791 +01 47 49.28112
 2018-Aug-27 07:55  m  00 35 48.352958 +01 47 49.55579
 2018-Aug-27 07:56  m  00 35 48.375097 +01 47 49.83046
 2018-Aug-27 07:57  m  00 35 48.397208 +01 47 50.10513
 2018-Aug-27 07:58  m  00 35 48.419291 +01 47 50.37979
 2018-Aug-27 07:59  m  00 35 48.441347 +01 47 50.65445
 2018-Aug-27 08:00  m  00 35 48.463376 +01 47 50.92910
 2018-Aug-27 08:01  m  00 35 48.485376 +01 47 51.20375
 2018-Aug-27 08:02  m  00 35 48.507350 +01 47 51.47840
 2018-Aug-27 08:03  m  00 35 48.529295 +01 47 51.75304
 2018-Aug-27 08:04  m  00 35 48.551214 +01 47 52.02768
 2018-Aug-27 08:05  m  00 35 48.573104 +01 47 52.30232
 2018-Aug-27 08:06  m  00 35 48.594968 +01 47 52.57695
 2018-Aug-27 08:07  m  00 35 48.616804 +01 47 52.85157
 2018-Aug-27 08:08  m  00 35 48.638613 +01 47 53.12619
 2018-Aug-27 08:09  m  00 35 48.660395 +01 47 53.40081
 2018-Aug-27 08:10  m  00 35 48.682150 +01 47 53.67542
 2018-Aug-27 08:11  m  00 35 48.703877 +01 47 53.95003
 2018-Aug-27 08:12  m  00 35 48.725578 +01 47 54.22463
 2018-Aug-27 08:13  m  00 35 48.747251 +01 47 54.49923
 2018-Aug-27 08:14  m  00 35 48.768898 +01 47 54.77382
 2018-Aug-27 08:15  m  00 35 48.790517 +01 47 55.04841
 2018-Aug-27 08:16  m  00 35 48.812110 +01 47 55.32299
 2018-Aug-27 08:17  m  00 35 48.833676 +01 47 55.59757
 2018-Aug-27 08:18  m  00 35 48.855215 +01 47 55.87214
 2018-Aug-27 08:19  m  00 35 48.876728 +01 47 56.14671
 2018-Aug-27 08:20  m  00 35 48.898214 +01 47 56.42127
 2018-Aug-27 08:21  m  00 35 48.919673 +01 47 56.69583
 2018-Aug-27 08:22  m  00 35 48.941106 +01 47 56.97038
 2018-Aug-27 08:23  m  00 35 48.962512 +01 47 57.24493
 2018-Aug-27 08:24  m  00 35 48.983892 +01 47 57.51947
 2018-Aug-27 08:25  m  00 35 49.005245 +01 47 57.79401
 2018-Aug-27 08:26  m  00 35 49.026572 +01 47 58.06854
 2018-Aug-27 08:27  m  00 35 49.047873 +01 47 58.34307
 2018-Aug-27 08:28  m  00 35 49.069147 +01 47 58.61759
 2018-Aug-27 08:29  m  00 35 49.090396 +01 47 58.89210
 2018-Aug-27 08:30  m  00 35 49.111618 +01 47 59.16661
 2018-Aug-27 08:31  m  00 35 49.132814 +01 47 59.44111
 2018-Aug-27 08:32  m  00 35 49.153985 +01 47 59.71561
 2018-Aug-27 08:33  m  00 35 49.175129 +01 47 59.99010
 2018-Aug-27 08:34  m  00 35 49.196248 +01 48 00.26458
 2018-Aug-27 08:35  m  00 35 49.217340 +01 48 00.53906
 2018-Aug-27 08:36  m  00 35 49.238407 +01 48 00.81354
 2018-Aug-27 08:37  m  00 35 49.259448 +01 48 01.08800
 2018-Aug-27 08:38  m  00 35 49.280464 +01 48 01.36246
 2018-Aug-27 08:39  m  00 35 49.301454 +01 48 01.63692
 2018-Aug-27 08:40  m  00 35 49.322419 +01 48 01.91137
 2018-Aug-27 08:41  m  00 35 49.343358 +01 48 02.18581
 2018-Aug-27 08:42  m  00 35 49.364272 +01 48 02.46025
 2018-Aug-27 08:43  m  00 35 49.385160 +01 48 02.73468
 2018-Aug-27 08:44  m  00 35 49.406023 +01 48 03.00910
 2018-Aug-27 08:45  m  00 35 49.426861 +01 48 03.28351
 2018-Aug-27 08:46  m  00 35 49.447674 +01 48 03.55792
 2018-Aug-27 08:47  m  00 35 49.468462 +01 48 03.83233
 2018-Aug-27 08:48  m  00 35 49.489225 +01 48 04.10672
 2018-Aug-27 08:49  m  00 35 49.509963 +01 48 04.38111
 2018-Aug-27 08:50  m  00 35 49.530676 +01 48 04.65550
 2018-Aug-27 08:51  m  00 35 49.551364 +01 48 04.92987
 2018-Aug-27 08:52  m  00 35 49.572028 +01 48 05.20424
 2018-Aug-27 08:53  m  00 35 49.592667 +01 48 05.47860
 2018-Aug-27 08:54  m  00 35 49.613281 +01 48 05.75296
 2018-Aug-27 08:55  m  00 35 49.633871 +01 48 06.02731
 2018-Aug-27 08:56  m  00 35 49.654437 +01 48 06.30165
